{
    "links": {
        "self": "http://www.neowsapp.com/rest/v1/neo/3893630?api_key=iIulBulltgU6a56xZRHN4H3l9WmuAYTsLGpBGhQ2"
    },
    "id": "3893630",
    "neo_reference_id": "3893630",
    "name": "(2019 WQ3)",
    "designation": "2019 WQ3",
    "nasa_jpl_url": "http://ssd.jpl.nasa.gov/sbdb.cgi?sstr=3893630",
    "absolute_magnitude_h": 22.5,
    "estimated_diameter": {
        "kilometers": {
            "estimated_diameter_min": 0.0840533402,
            "estimated_diameter_max": 0.1879489824
        },
        "meters": {
            "estimated_diameter_min": 84.0533402073,
            "estimated_diameter_max": 187.9489824394
        },
        "miles": {
            "estimated_diameter_min": 0.0522283081,
            "estimated_diameter_max": 0.1167860472
        },
        "feet": {
            "estimated_diameter_min": 275.7655606856,
            "estimated_diameter_max": 616.6305395464
        }
    },
    "is_potentially_hazardous_asteroid": false,
    "close_approach_data": [
        {
            "close_approach_date": "1924-12-23",
            "close_approach_date_full": "1924-Dec-23 20:49",
            "epoch_date_close_approach": -1420773060000,
            "relative_velocity": {
                "kilometers_per_second": "25.5445697735",
                "kilometers_per_hour": "91960.4511846292",
                "miles_per_hour": "57140.6481263603"
            },
            "miss_distance": {
                "astronomical": "0.4855991905",
                "lunar": "188.8980851045",
                "kilometers": "72644604.572524235",
                "miles": "45139264.145875043"
            },
            "orbiting_body": "Earth"
        },
        {
            "close_approach_date": "2019-11-30",
            "close_approach_date_full": "2019-Nov-30 03:07",
            "epoch_date_close_approach": 1575083220000,
            "relative_velocity": {
                "kilometers_per_second": "17.8434056966",
                "kilometers_per_hour": "64236.2605077416",
                "miles_per_hour": "39913.9142027131"
            },
            "miss_distance": {
                "astronomical": "0.0248215919",
                "lunar": "9.6555992491",
                "kilometers": "3713257.278249253",
                "miles": "2307311.0812675714"
            },
            "orbiting_body": "Earth"
        },
        {
            "close_approach_date": "2030-12-11",
            "close_approach_date_full": "2030-Dec-11 09:48",
            "epoch_date_close_approach": 1923212880000,
            "relative_velocity": {
                "kilometers_per_second": "20.4312383919",
                "kilometers_per_hour": "73552.4582109959",
                "miles_per_hour": "45702.637158938"
            },
            "miss_distance": {
                "astronomical": "0.2222135771",
                "lunar": "86.4410814919",
                "kilometers": "33242677.819240777",
                "miles": "20656042.1634736426"
            },
            "orbiting_body": "Earth"
        },
        {
            "close_approach_date": "2167-11-11",
            "close_approach_date_full": "2167-Nov-11 13:25",
            "epoch_date_close_approach": 6243917100000,
            "relative_velocity": {
                "kilometers_per_second": "18.5716803108",
                "kilometers_per_hour": "66858.0491188102",
                "miles_per_hour": "41542.9916871851"
            },
            "miss_distance": {
                "astronomical": "0.3495708191",
                "lunar": "135.9830486299",
                "kilometers": "52295049.951515317",
                "miles": "32494637.2435206946"
            },
            "orbiting_body": "Earth"
        }
    ],
    "orbital_data": {
        "orbit_id": "15",
        "orbit_determination_date": "2020-09-11 07:45:54",
        "first_observation_date": "2019-11-27",
        "last_observation_date": "2020-01-18",
        "data_arc_in_days": 52,
        "observations_used": 223,
        "orbit_uncertainty": "7",
        "minimum_orbit_intersection": ".0250848",
        "jupiter_tisserand_invariant": "3.970",
        "epoch_osculation": "2459000.5",
        "eccentricity": ".4161692663161261",
        "semi_major_axis": "1.695013058700649",
        "inclination": "29.84495927529419",
        "ascending_node_longitude": "248.038085661549",
        "orbital_period": "806.0426079871128",
        "perihelion_distance": ".9896007176649472",
        "perihelion_argument": "157.8235919412244",
        "aphelion_distance": "2.40042539973635",
        "perihelion_time": "2458799.308456629111",
        "mean_anomaly": "89.85747762688767",
        "mean_motion": ".446626513825378",
        "equinox": "J2000",
        "orbit_class": {
            "orbit_class_type": "APO",
            "orbit_class_description": "Near-Earth asteroid orbits which cross the Earth’s orbit similar to that of 1862 Apollo",
            "orbit_class_range": "a (semi-major axis) > 1.0 AU; q (perihelion) < 1.017 AU"
        }
    },
    "is_sentry_object": false
}